LEMUR-2-GREENBERG       
1 42837U 17042N   26068.46200528  .00019778  00000+0  72539-3 0  9997
2 42837  97.3781 249.8007 0009157   4.0119 356.1192 15.27971352473146
STARLINK-35585          
1 66170U 25240AA  26068.42474381  .00017501  00000+0  60128-3 0  9991
2 66170  53.1589  64.3324 0001644  80.3548 279.7639 15.30217853 21942
